0 COSMOS 2251 DEB
1 35015U 93036AGC 13281.31993346  .00001065  00000-0  40198-3 0  2718
2 35015 073.9559 159.1912 0094767 292.9683 066.1511 14.30134771234666
0 COSMOS 2251 DEB
1 35015U 93036AGC 13283.97806991  .00001060  00000-0  40036-3 0  2728
2 35015 073.9550 154.3351 0094818 287.6961 071.3802 14.30140433235044
0 COSMOS 2251 DEB
1 35015U 93036AGC 13285.30713526  .00001081  00000-0  40788-3 0  2736
2 35015 073.9555 151.9056 0094919 284.9842 074.0804 14.30143627235235
0 COSMOS 2251 DEB
1 35015U 93036AGC 13287.26575327  .00001082  00000-0  40818-3 0  2744
2 35015 073.9554 148.3252 0095254 281.1136 077.9356 14.30148139235518
0 COSMOS 2251 DEB
1 35015U 93036AGC 13290.27361975  .00001202  00000-0  45220-3 0  2758
2 35015 073.9507 142.8327 0095135 275.3947 083.6444 14.30156415235946
0 COSMOS 2251 DEB
1 35015U 93036AGC 13293.91101540  .00001255  00000-0  47167-3 0  2763
2 35015 073.9519 136.1850 0095322 267.9404 091.0931 14.30166543236464
0 COSMOS 2251 DEB
1 35015U 93036AGC 13295.24005732  .00001309  00000-0  49137-3 0  2777
2 35015 073.9522 133.7551 0095106 264.8496 094.1948 14.30170862236658
